IRIDIUM 106             
1 41917U 17003A   24104.43206307 -.00000035  00000+0 -19618-4 0  9997
2 41917  86.3961  60.6456 0002176  76.1439 283.9998 14.34217598379292
IRIDIUM 103             
1 41918U 17003B   24104.41937363  .00000413  00000+0  14039-3 0  9998
2 41918  86.3970  60.5515 0002673  89.3081 270.8421 14.34216381379317
IRIDIUM 109             
1 41919U 17003C   24104.42572081  .00000063  00000+0  15337-4 0  9996
2 41919  86.3965  60.5962 0002293  93.5327 266.6132 14.34217754379289
IRIDIUM 102             
1 41920U 17003D   24104.39400730  .00000240  00000+0  78769-4 0  9990
2 41920  86.3968  60.5489 0002332  91.9528 268.1935 14.34217458379365
IRIDIUM 105             
1 41921U 17003E   24104.29493044  .00000235  00000+0  77020-4 0  9993
2 41921  86.4021  29.0199 0002208  84.0808 276.0640 14.34213131381202
IRIDIUM 104             
1 41922U 17003F   24104.40669492  .00000111  00000+0  32611-4 0  9999
2 41922  86.3965  60.5750 0002358  89.6146 270.5320 14.34220501379350
IRIDIUM 114             
1 41923U 17003G   24104.41303560  .00000054  00000+0  12179-4 0  9995
2 41923  86.3966  60.5587 0002204  80.8194 279.3251 14.34217442379334
IRIDIUM 108             
1 41924U 17003H   24104.30178790  .00000206  00000+0  66646-4 0  9996
2 41924  86.4015  28.9461 0002248  78.9588 281.1860 14.34218303381172
